STARLINK-30788          
1 58159U 23166K   26068.73547914  .00000155  00000+0  17383-4 0  9994
2 58159  53.1605 219.5892 0001242  86.9823 273.1320 15.30184285133036
BANDWAGON-2 OBJECT D    
1 62380U 24247D   26068.52261193  .00011259  00000+0  40119-3 0  9994
2 62380  44.9954 115.6710 0003488 351.1453   8.9368 15.29076102 67732
